ONEWEB-0388             
1 49314U 21090AM  26152.48631446  .00000009  00000+0 -10728-4 0  9996
2 49314  87.9155 308.0992 0001911  92.4811 267.6540 13.19726558224348
ONEWEB-0389             
1 50469U 21132A   26153.08740921 -.00000225  00000+0 -61364-3 0  9994
2 50469  87.9142   8.8719 0002221  86.3164 273.8222 13.17649294216095
ONEWEB-0390             
1 50470U 21132B   26153.08909593 -.00000146  00000+0 -40907-3 0  9990
2 50470  87.9144   8.8726 0001802  93.2992 266.8346 13.17648897216094
ONEWEB-0391             
1 50471U 21132C   26153.09078366  .00000041  00000+0  71842-4 0  9992
2 50471  87.9144   8.8812 0002572  95.9731 264.1694 13.17647940216091
ONEWEB-0392             
1 50472U 21132D   26152.66555798  .00000033  00000+0  51990-4 0  9997
2 50472  87.9154   8.9329 0002224  89.0332 271.1054 13.17649498216078
ONEWEB-0393             
1 50473U 21132E   26153.09670403  .00000106  00000+0  23901-3 0  9998
2 50473  87.9144   8.8658 0002010  86.6647 273.4715 13.17649424216121
ONEWEB-0394             
1 50474U 21132F   26153.07455061  .00000108  00000+0  24042-3 0  9997
2 50474  87.9165 338.4492 0002076  88.7212 271.4158 13.18688842219609
ONEWEB-0395             
1 50475U 21132G   26153.13657657 -.00000413  00000+0 -12021-2 0  9994
2 50475  87.8901  24.0640 0001924  90.4689 269.6659 13.11417567213740
ONEWEB-0396             
1 50476U 21132H   26153.06780557  .00000057  00000+0  11203-3 0  9997
2 50476  87.9165 338.4632 0002010  88.4013 271.7350 13.18688806219642
ONEWEB-0397             
1 50477U 21132J   26153.08298188  .00000072  00000+0  15087-3 0  9995
2 50477  87.9165 338.4602 0001985  84.6536 275.4823 13.18688527219622
ONEWEB-0398             
1 50478U 21132K   26153.18066277  .00000305  00000+0  82410-3 0  9992
2 50478  87.8904  24.0436 0001743  97.5573 262.5753 13.11416456213640
ONEWEB-0399             
1 50479U 21132L   26153.16710540  .00000645  00000+0  17833-2 0  9993
2 50479  87.8907  24.0566 0002300  82.6570 277.4819 13.11417297213631
ONEWEB-0400             
1 50480U 21132M   26152.52992592  .00000062  00000+0  12336-3 0  9990
2 50480  87.9166 338.5601 0001782  95.7950 264.3386 13.18684519219544
ONEWEB-0401             
1 50481U 21132N   26153.03071429  .00000006  00000+0 -18676-4 0  9998
2 50481  87.9165 338.4573 0001768  83.2252 276.9081 13.18688165219612
ONEWEB-0402             
1 50482U 21132P   26153.06951266  .00000067  00000+0  13626-3 0  9993
2 50482  87.9165 338.4393 0001838  75.1201 285.0135 13.18688444219649
ONEWEB-0403             
1 50483U 21132Q   26153.01890939  .00000034  00000+0  54132-4 0  9990
2 50483  87.9166 338.4735 0001969  91.0616 269.0742 13.18687788219593
