[{"OBJECT_NAME":"ONEWEB-0388","OBJECT_ID":"2021-090AM","EPOCH":"2026-06-01T11:40:17.569344","MEAN_MOTION":13.19726558,"ECCENTRICITY":0.0001911,"INCLINATION":87.9155,"RA_OF_ASC_NODE":308.0992,"ARG_OF_PERICENTER":92.4811,"MEAN_ANOMALY":267.654,"EPHEMERIS_TYPE":0,"CLASSIFICATION_TYPE":"U","NORAD_CAT_ID":49314,"ELEMENT_SET_NO":999,"REV_AT_EPOCH":22434,"BSTAR":-1.0728000000000001e-05,"MEAN_MOTION_DOT":9e-08,"MEAN_MOTION_DDOT":0.0},{"OBJECT_NAME":"ONEWEB-0389","OBJECT_ID":"2021-132A","EPOCH":"2026-06-02T02:05:52.155744","MEAN_MOTION":13.17649294,"ECCENTRICITY":0.0002221,"INCLINATION":87.9142,"RA_OF_ASC_NODE":8.8719,"ARG_OF_PERICENTER":86.3164,"MEAN_ANOMALY":273.8222,"EPHEMERIS_TYPE":0,"CLASSIFICATION_TYPE":"U","NORAD_CAT_ID":50469,"ELEMENT_SET_NO":999,"REV_AT_EPOCH":21609,"BSTAR":-0.0006136399999999999,"MEAN_MOTION_DOT":-2.25e-06,"MEAN_MOTION_DDOT":0.0},{"OBJECT_NAME":"ONEWEB-0390","OBJECT_ID":"2021-132B","EPOCH":"2026-06-02T02:08:17.888352","MEAN_MOTION":13.17648897,"ECCENTRICITY":0.0001802,"INCLINATION":87.9144,"RA_OF_ASC_NODE":8.8726,"ARG_OF_PERICENTER":93.2992,"MEAN_ANOMALY":266.8346,"EPHEMERIS_TYPE":0,"CLASSIFICATION_TYPE":"U","NORAD_CAT_ID":50470,"ELEMENT_SET_NO":999,"REV_AT_EPOCH":21609,"BSTAR":-0.00040907,"MEAN_MOTION_DOT":-1.46e-06,"MEAN_MOTION_DDOT":0.0},{"OBJECT_NAME":"ONEWEB-0391","OBJECT_ID":"2021-132C","EPOCH":"2026-06-02T02:10:43.708224","MEAN_MOTION":13.1764794,"ECCENTRICITY":0.0002572,"INCLINATION":87.9144,"RA_OF_ASC_NODE":8.8812,"ARG_OF_PERICENTER":95.9731,"MEAN_ANOMALY":264.1694,"EPHEMERIS_TYPE":0,"CLASSIFICATION_TYPE":"U","NORAD_CAT_ID":50471,"ELEMENT_SET_NO":999,"REV_AT_EPOCH":21609,"BSTAR":7.1842e-05,"MEAN_MOTION_DOT":4.1e-07,"MEAN_MOTION_DDOT":0.0},{"OBJECT_NAME":"ONEWEB-0392","OBJECT_ID":"2021-132D","EPOCH":"2026-06-01T15:58:24.209472","MEAN_MOTION":13.17649498,"ECCENTRICITY":0.0002224,"INCLINATION":87.9154,"RA_OF_ASC_NODE":8.9329,"ARG_OF_PERICENTER":89.0332,"MEAN_ANOMALY":271.1054,"EPHEMERIS_TYPE":0,"CLASSIFICATION_TYPE":"U","NORAD_CAT_ID":50472,"ELEMENT_SET_NO":999,"REV_AT_EPOCH":21607,"BSTAR":5.199000000000001e-05,"MEAN_MOTION_DOT":3.3e-07,"MEAN_MOTION_DDOT":0.0},{"OBJECT_NAME":"ONEWEB-0393","OBJECT_ID":"2021-132E","EPOCH":"2026-06-02T02:19:15.228192","MEAN_MOTION":13.17649424,"ECCENTRICITY":0.000201,"INCLINATION":87.9144,"RA_OF_ASC_NODE":8.8658,"ARG_OF_PERICENTER":86.6647,"MEAN_ANOMALY":273.4715,"EPHEMERIS_TYPE":0,"CLASSIFICATION_TYPE":"U","NORAD_CAT_ID":50473,"ELEMENT_SET_NO":999,"REV_AT_EPOCH":21612,"BSTAR":0.00023901,"MEAN_MOTION_DOT":1.06e-06,"MEAN_MOTION_DDOT":0.0},{"OBJECT_NAME":"ONEWEB-0394","OBJECT_ID":"2021-132F","EPOCH":"2026-06-02T01:47:21.172704","MEAN_MOTION":13.18688842,"ECCENTRICITY":0.0002076,"INCLINATION":87.9165,"RA_OF_ASC_NODE":338.4492,"ARG_OF_PERICENTER":88.7212,"MEAN_ANOMALY":271.4158,"EPHEMERIS_TYPE":0,"CLASSIFICATION_TYPE":"U","NORAD_CAT_ID":50474,"ELEMENT_SET_NO":999,"REV_AT_EPOCH":21960,"BSTAR":0.00024042,"MEAN_MOTION_DOT":1.08e-06,"MEAN_MOTION_DDOT":0.0},{"OBJECT_NAME":"ONEWEB-0395","OBJECT_ID":"2021-132G","EPOCH":"2026-06-02T03:16:40.215648","MEAN_MOTION":13.11417567,"ECCENTRICITY":0.0001924,"INCLINATION":87.8901,"RA_OF_ASC_NODE":24.064,"ARG_OF_PERICENTER":90.4689,"MEAN_ANOMALY":269.6659,"EPHEMERIS_TYPE":0,"CLASSIFICATION_TYPE":"U","NORAD_CAT_ID":50475,"ELEMENT_SET_NO":999,"REV_AT_EPOCH":21374,"BSTAR":-0.0012021,"MEAN_MOTION_DOT":-4.13e-06,"MEAN_MOTION_DDOT":0.0},{"OBJECT_NAME":"ONEWEB-0396","OBJECT_ID":"2021-132H","EPOCH":"2026-06-02T01:37:38.401248","MEAN_MOTION":13.18688806,"ECCENTRICITY":0.000201,"INCLINATION":87.9165,"RA_OF_ASC_NODE":338.4632,"ARG_OF_PERICENTER":88.4013,"MEAN_ANOMALY":271.735,"EPHEMERIS_TYPE":0,"CLASSIFICATION_TYPE":"U","NORAD_CAT_ID":50476,"ELEMENT_SET_NO":999,"REV_AT_EPOCH":21964,"BSTAR":0.00011203000000000001,"MEAN_MOTION_DOT":5.7e-07,"MEAN_MOTION_DDOT":0.0},{"OBJECT_NAME":"ONEWEB-0397","OBJECT_ID":"2021-132J","EPOCH":"2026-06-02T01:59:29.634432","MEAN_MOTION":13.18688527,"ECCENTRICITY":0.0001985,"INCLINATION":87.9165,"RA_OF_ASC_NODE":338.4602,"ARG_OF_PERICENTER":84.6536,"MEAN_ANOMALY":275.4823,"EPHEMERIS_TYPE":0,"CLASSIFICATION_TYPE":"U","NORAD_CAT_ID":50477,"ELEMENT_SET_NO":999,"REV_AT_EPOCH":21962,"BSTAR":0.00015087,"MEAN_MOTION_DOT":7.2e-07,"MEAN_MOTION_DDOT":0.0},{"OBJECT_NAME":"ONEWEB-0398","OBJECT_ID":"2021-132K","EPOCH":"2026-06-02T04:20:09.263328","MEAN_MOTION":13.11416456,"ECCENTRICITY":0.0001743,"INCLINATION":87.8904,"RA_OF_ASC_NODE":24.0436,"ARG_OF_PERICENTER":97.5573,"MEAN_ANOMALY":262.5753,"EPHEMERIS_TYPE":0,"CLASSIFICATION_TYPE":"U","NORAD_CAT_ID":50478,"ELEMENT_SET_NO":999,"REV_AT_EPOCH":21364,"BSTAR":0.0008241,"MEAN_MOTION_DOT":3.05e-06,"MEAN_MOTION_DDOT":0.0},{"OBJECT_NAME":"ONEWEB-0399","OBJECT_ID":"2021-132L","EPOCH":"2026-06-02T04:00:37.906560","MEAN_MOTION":13.11417297,"ECCENTRICITY":0.00023,"INCLINATION":87.8907,"RA_OF_ASC_NODE":24.0566,"ARG_OF_PERICENTER":82.657,"MEAN_ANOMALY":277.4819,"EPHEMERIS_TYPE":0,"CLASSIFICATION_TYPE":"U","NORAD_CAT_ID":50479,"ELEMENT_SET_NO":999,"REV_AT_EPOCH":21363,"BSTAR":0.0017832999999999998,"MEAN_MOTION_DOT":6.45e-06,"MEAN_MOTION_DDOT":0.0},{"OBJECT_NAME":"ONEWEB-0400","OBJECT_ID":"2021-132M","EPOCH":"2026-06-01T12:43:05.599488","MEAN_MOTION":13.18684519,"ECCENTRICITY":0.0001782,"INCLINATION":87.9166,"RA_OF_ASC_NODE":338.5601,"ARG_OF_PERICENTER":95.795,"MEAN_ANOMALY":264.3386,"EPHEMERIS_TYPE":0,"CLASSIFICATION_TYPE":"U","NORAD_CAT_ID":50480,"ELEMENT_SET_NO":999,"REV_AT_EPOCH":21954,"BSTAR":0.00012336,"MEAN_MOTION_DOT":6.2e-07,"MEAN_MOTION_DDOT":0.0},{"OBJECT_NAME":"ONEWEB-0401","OBJECT_ID":"2021-132N","EPOCH":"2026-06-02T00:44:13.714656","MEAN_MOTION":13.18688165,"ECCENTRICITY":0.0001768,"INCLINATION":87.9165,"RA_OF_ASC_NODE":338.4573,"ARG_OF_PERICENTER":83.2252,"MEAN_ANOMALY":276.9081,"EPHEMERIS_TYPE":0,"CLASSIFICATION_TYPE":"U","NORAD_CAT_ID":50481,"ELEMENT_SET_NO":999,"REV_AT_EPOCH":21961,"BSTAR":-1.8676000000000002e-05,"MEAN_MOTION_DOT":6e-08,"MEAN_MOTION_DDOT":0.0},{"OBJECT_NAME":"ONEWEB-0402","OBJECT_ID":"2021-132P","EPOCH":"2026-06-02T01:40:05.893824","MEAN_MOTION":13.18688444,"ECCENTRICITY":0.0001838,"INCLINATION":87.9165,"RA_OF_ASC_NODE":338.4393,"ARG_OF_PERICENTER":75.1201,"MEAN_ANOMALY":285.0135,"EPHEMERIS_TYPE":0,"CLASSIFICATION_TYPE":"U","NORAD_CAT_ID":50482,"ELEMENT_SET_NO":999,"REV_AT_EPOCH":21964,"BSTAR":0.00013626,"MEAN_MOTION_DOT":6.7e-07,"MEAN_MOTION_DDOT":0.0},{"OBJECT_NAME":"ONEWEB-0403","OBJECT_ID":"2021-132Q","EPOCH":"2026-06-02T00:27:13.771296","MEAN_MOTION":13.18687788,"ECCENTRICITY":0.0001969,"INCLINATION":87.9166,"RA_OF_ASC_NODE":338.4735,"ARG_OF_PERICENTER":91.0616,"MEAN_ANOMALY":269.0742,"EPHEMERIS_TYPE":0,"CLASSIFICATION_TYPE":"U","NORAD_CAT_ID":50483,"ELEMENT_SET_NO":999,"REV_AT_EPOCH":21959,"BSTAR":5.4132e-05,"MEAN_MOTION_DOT":3.4e-07,"MEAN_MOTION_DDOT":0.0}]